IRIDIUM 155             
1 43573U 18061E   20156.54220061  .00000065  00000-0  15978-4 0  9997
2 43573  86.3982 257.5783 0002275  79.9932 280.1521 14.34218040 97509
IRIDIUM 154             
1 43574U 18061F   20156.38364741  .00000058  00000-0  13713-4 0  9991
2 43574  86.3985 257.6734 0002473 100.2016 259.9458 14.34216284 97535
IRIDIUM 163             
1 43575U 18061G   20156.29485348  .00000054  00000-0  12048-4 0  9995
2 43575  86.3983 257.6929 0001835 108.5222 251.6173 14.34217526 97499
IRIDIUM 156             
1 43576U 18061H   20156.26947572  .00000058  00000-0  13508-4 0  9991
2 43576  86.3983 257.7082 0001898  91.9878 268.1535 14.34217535 97486
IRIDIUM 164             
1 43577U 18061J   20156.32020846  .00000050  00000-0  10900-4 0  9990
2 43577  86.3984 257.6939 0002315 101.4202 258.7254 14.34215557 97532
IRIDIUM 159             
1 43578U 18061K   20156.21872851  .00000066  00000-0  16431-4 0  9992
2 43578  86.3982 257.7193 0002358  99.3138 260.8325 14.34216295 97481
IRIDIUM 180             
1 43922U 19002A   20156.14845092  .00000114  00000-0  33780-4 0  9990
2 43922  86.4001 194.6478 0002785 116.4005 243.7477 14.34214849 73081
IRIDIUM 176             
1 43923U 19002B   20156.23811948  .00000146  00000-0  19187-4 0  9994
2 43923  86.6137 194.6352 0002527  95.3062 264.8444 14.72257677 74983
IRIDIUM 168             
1 43924U 19002C   20156.42118870  .00000084  00000-0  22881-4 0  9996
2 43924  86.4002 194.5487 0002543  98.1857 261.9627 14.34218360 73100
IRIDIUM 173             
1 43925U 19002D   20156.54805268  .00000082  00000-0  22208-4 0  9995
2 43925  86.4000 194.4744 0002415  97.0059 263.1411 14.34217379 73119
IRIDIUM 169             
1 43926U 19002E   20156.16899706  .00000066  00000-0  15120-4 0  9991
2 43926  86.4265 226.1778 0006704  53.0257 307.1554 14.38607865 73350
IRIDIUM 172             
1 43927U 19002F   20156.47194636  .00000084  00000-0  22784-4 0  9990
2 43927  86.4000 194.5072 0002474  99.6929 260.4546 14.34217200 73106
IRIDIUM 175             
1 43928U 19002G   20156.16396174  .00000146  00000-0  19174-4 0  9996
2 43928  86.6121 194.5604 0001882  75.3322 284.8104 14.72245030 74963
IRIDIUM 171             
1 43929U 19002H   20156.52267073  .00000079  00000-0  21065-4 0  9999
2 43929  86.4010 194.5474 0002550  97.3533 262.7953 14.34216471 73102
IRIDIUM 170             
1 43930U 19002J   20156.51615598  .00000146  00000-0  19206-4 0  9998
2 43930  86.6137 194.5262 0002224  95.8966 264.2504 14.72247452 75030
IRIDIUM 167             
1 43931U 19002K   20156.58609800  .00000063  00000-0  15584-4 0  9998
2 43931  86.4000 194.4623 0002832 111.7448 248.4050 14.34215325 73115
